[{"OBJECT_NAME":"STARLINK-5368","OBJECT_ID":"2022-177W","EPOCH":"2026-03-09T22:00:01.999584","MEAN_MOTION":15.19174246,"ECCENTRICITY":0.00016966,"INCLINATION":43.0008,"RA_OF_ASC_NODE":130.9789,"ARG_OF_PERICENTER":280.9894,"MEAN_ANOMALY":38.8001,"EPHEMERIS_TYPE":0,"CLASSIFICATION_TYPE":"U","NORAD_CAT_ID":54840,"ELEMENT_SET_NO":999,"REV_AT_EPOCH":573,"BSTAR":0.047025493,"MEAN_MOTION_DOT":0.01090381,"MEAN_MOTION_DDOT":0},{"OBJECT_NAME":"TIANHUI 7","OBJECT_ID":"2025-314A","EPOCH":"2026-02-21T16:04:56.557920","MEAN_MOTION":15.26178925,"ECCENTRICITY":0.00016912,"INCLINATION":97.4117,"RA_OF_ASC_NODE":129.4508,"ARG_OF_PERICENTER":83.9579,"MEAN_ANOMALY":276.1853,"EPHEMERIS_TYPE":0,"CLASSIFICATION_TYPE":"U","NORAD_CAT_ID":67300,"ELEMENT_SET_NO":999,"REV_AT_EPOCH":817,"BSTAR":0.00025701477,"MEAN_MOTION_DOT":6.572e-5,"MEAN_MOTION_DDOT":0}]
